[{"OBJECT_NAME":"AMOS-17","OBJECT_ID":"2019-050A","EPOCH":"2026-03-06T19:10:26.980032","MEAN_MOTION":1.00272429,"ECCENTRICITY":0.0001429,"INCLINATION":0.0427,"RA_OF_ASC_NODE":292.0878,"ARG_OF_PERICENTER":57.3406,"MEAN_ANOMALY":119.6638,"EPHEMERIS_TYPE":0,"CLASSIFICATION_TYPE":"U","NORAD_CAT_ID":44479,"ELEMENT_SET_NO":999,"REV_AT_EPOCH":2416,"BSTAR":0,"MEAN_MOTION_DOT":1.06e-6,"MEAN_MOTION_DDOT":0}]
