AMOS-17                 
1 44479U 19050A   26065.79892338  .00000106  00000+0  00000+0 0  9996
2 44479   0.0427 292.0878 0001429  57.3406 119.6638  1.00272429 24164
